     3.03           N                   C                   RINEX VERSION / TYPE
NetR9 5.37          RIGTC, GO PECNY     20210729 201705 UTC PGM / RUN BY / DATE 
    18    18  2185     7                                    LEAP SECONDS        
MIXED NAVIGATION DATA FROM STATION GOP7 (RIGTC, GO PECNY)   COMMENT             
                                                            END OF HEADER       
C24 2021 07 29 19 00 00 -.963832717389D-03 -.197486471620D-10  .000000000000D+00
      .100000000000D+01  .576718750000D+02  .413124351145D-08  .582944478366D+00
      .288616865873D-05  .383396283723D-03  .695511698723D-05  .528261525917D+04
      .414000000000D+06  .931322574615D-08 -.104300475532D+01  .279396772385D-08
      .948856299719D+00  .213687500000D+03 -.146266500907D+00 -.702993568218D-08
      .160363822654D-09  .000000000000D+00  .812000000000D+03  .000000000000D+00
      .200000000000D+01  .000000000000D+00  .700000013509D-08  .700000000000D-08
      .414000000000D+06  .100000000000D+01
C10 2021 07 29 19 00 00 -.137194292620D-04  .370103947489D-11  .000000000000D+00
      .100000000000D+01 -.718750000000D+00  .188650715202D-08 -.313679424864D+01
      .381842255592D-07  .771722372156D-02  .118603929877D-05  .649316629410D+04
      .414000000000D+06 -.131316483021D-06 -.170517156393D+00  .161118805408D-06
      .888554399560D+00  .181437500000D+03 -.253224946738D+01 -.276297223174D-08
     -.319299014371D-09  .000000000000D+00  .812000000000D+03  .000000000000D+00
      .200000000000D+01  .000000000000D+00  .610000006063D-08  .260000000000D-08
      .414000000000D+06  .000000000000D+00
C07 2021 07 29 19 00 00  .681681558490D-04 -.413606926486D-10  .000000000000D+00
      .100000000000D+01 -.388125000000D+02  .193579491934D-08 -.281798670709D+01
     -.127404928207D-05  .910435745027D-02  .993721187115D-06  .649281997299D+04
      .414000000000D+06 -.216532498598D-06 -.163973003025D+00  .125262886286D-06
      .886738504218D+00  .190875000000D+03 -.249816631566D+01 -.274404287183D-08
     -.351800368183D-09  .000000000000D+00  .812000000000D+03  .000000000000D+00
      .200000000000D+01  .000000000000D+00  .145000003116D-07  .600000000000D-09
      .414000000000D+06  .000000000000D+00
C26 2021 07 29 19 00 00  .871840631589D-03 -.517630383001D-11  .000000000000D+00
      .100000000000D+01  .649531250000D+02  .401481009010D-08  .101740736671D+01
      .332109630108D-05  .636578304693D-03  .730296596885D-05  .528262235260D+04
      .414000000000D+06 -.433064997196D-07 -.106768401362D+01  .279396772385D-08
      .950188169597D+00  .207828125000D+03  .155085864932D+00 -.696707592096D-08
      .183579075377D-09  .000000000000D+00  .812000000000D+03  .000000000000D+00
      .200000000000D+01  .000000000000D+00 -.489999996134D-08 -.490000000000D-08
      .414000000000D+06  .100000000000D+01
C09 2021 07 29 19 00 00  .132999848574D-04 -.290816259962D-10  .000000000000D+00
      .100000000000D+01 -.118546875000D+03  .962540093658D-09 -.142612480012D+01
     -.425754114985D-05  .828865030780D-02  .261771492660D-04  .649377305031D+04
      .414000000000D+06  .605359673500D-07 -.211661048139D+01 -.236090272665D-06
      .950400142038D+00 -.560765625000D+03 -.233792395123D+01 -.179043172152D-08
     -.201436962087D-09  .000000000000D+00  .812000000000D+03  .000000000000D+00
      .200000000000D+01  .000000000000D+00  .660000010200D-08  .340000000000D-08
      .414000000000D+06  .000000000000D+00
C05 2021 07 29 19 00 00 -.242638634518D-04  .161968216617D-10  .000000000000D+00
      .100000000000D+01  .454140625000D+03  .951111046164D-09 -.204808223592D+01
      .148634426296D-04  .674599083140D-03 -.440049916506D-06  .649339847565D+04
      .414000000000D+06  .100117176771D-06  .198731877926D+01 -.931322574615D-07
      .115309605119D+00  .100000000000D+02 -.140856647405D+00 -.217866217860D-10
      .201436962087D-09  .000000000000D+00  .812000000000D+03  .000000000000D+00
      .200000000000D+01  .000000000000D+00 -.499999985859D-09 -.960000000000D-08
      .414030000000D+06  .000000000000D+00
C14 2021 07 29 19 00 00  .763931195252D-03 -.324114068917D-10  .000000000000D+00
      .140000000000D+02 -.604375000000D+02  .409802784217D-08  .262409314529D+01
     -.294344499707D-05  .133602705318D-02  .576023012400D-05  .528261778069D+04
      .414000000000D+06 -.158324837685D-07  .313560037436D+01  .782310962677D-07
      .964290277098D+00  .245906250000D+03 -.498666212546D+00 -.699100548915D-08
     -.125362364703D-09  .000000000000D+00  .812000000000D+03  .000000000000D+00
      .200000000000D+01  .000000000000D+00  .670000011027D-08  .140000000000D-08
      .414000000000D+06  .000000000000D+00
C25 2021 07 29 19 00 00 -.878363149241D-03  .594102544937D-11  .000000000000D+00
      .100000000000D+01  .595937500000D+02  .411910014848D-08 -.417282104857D+00
      .288384035230D-05  .347593915649D-03  .669155269861D-05  .528262343407D+04
      .414000000000D+06  .419095158577D-08 -.106825236754D+01 -.884756445885D-08
      .950134123551D+00  .220562500000D+03  .268849525519D-01 -.702957852445D-08
      .942896418278D-10  .000000000000D+00  .812000000000D+03  .000000000000D+00
      .200000000000D+01  .000000000000D+00  .900000018955D-09  .900000000000D-09
      .414000000000D+06  .100000000000D+01
C24 2021 07 29 20 00 00 -.963902450167D-03 -.195594651586D-10  .000000000000D+00
      .100000000000D+01  .633281250000D+02  .410302805044D-08  .106864197188D+01
      .316230580211D-05  .383778591640D-03  .704359263182D-05  .528261684990D+04
      .417600000000D+06 -.102445483208D-07 -.104302998042D+01  .102445483208D-07
      .948856915608D+00  .211890625000D+03 -.144393228455D+00 -.701886379242D-08
      .148220459691D-09  .000000000000D+00  .812000000000D+03  .000000000000D+00
      .200000000000D+01  .000000000000D+00  .700000013509D-08  .700000000000D-08
      .417600000000D+06  .100000000000D+01
C14 2021 07 29 20 00 00  .763813266531D-03 -.325730553641D-10  .000000000000D+00
      .100000000000D+01 -.558593750000D+02  .407838416679D-08  .311166641285D+01
     -.281305983663D-05  .133674533572D-02  .583659857512D-05  .528261639214D+04
      .417600000000D+06  .447034835815D-07  .313557475428D+01 -.605359673500D-07
      .964290299042D+00  .243078125000D+03 -.498669186659D+00 -.687671501421D-08
     -.871464871438D-10  .000000000000D+00  .812000000000D+03  .000000000000D+00
      .200000000000D+01  .000000000000D+00  .670000011027D-08  .140000000000D-08
      .417600000000D+06  .000000000000D+00
C07 2021 07 29 20 00 00  .680191442370D-04 -.413580281133D-10  .000000000000D+00
      .100000000000D+01 -.437187500000D+02  .193793786575D-08 -.255545760502D+01
     -.144680961967D-05  .910507643130D-02  .669155269861D-06  .649281776810D+04
      .417600000000D+06 -.265426933765D-06 -.163982520770D+00  .582076609135D-07
      .886737347050D+00  .199734375000D+03 -.249810294205D+01 -.273547108621D-08
     -.383944564261D-09  .000000000000D+00  .812000000000D+03  .000000000000D+00
      .200000000000D+01  .000000000000D+00  .145000003116D-07  .600000000000D-09
      .417600000000D+06  .000000000000D+00
C09 2021 07 29 20 00 00  .131957931444D-04 -.290203416853D-10  .000000000000D+00
      .100000000000D+01 -.972187500000D+02  .105182952721D-08 -.116406315012D+01
     -.366521999240D-05  .828676263336D-02  .271936878562D-04  .649376356697D+04
      .417600000000D+06  .591389834881D-07 -.211661684947D+01 -.191386789083D-06
      .950399293545D+00 -.596734375000D+03 -.233751251284D+01 -.180543234636D-08
     -.208937274505D-09  .000000000000D+00  .812000000000D+03  .000000000000D+00
      .200000000000D+01  .000000000000D+00  .660000010200D-08  .340000000000D-08
      .417600000000D+06  .000000000000D+00
C25 2021 07 29 20 00 00 -.878342078067D-03  .590105742049D-11  .000000000000D+00
      .100000000000D+01  .584375000000D+02  .416660212713D-08  .704296673926D-01
      .283820554614D-05  .346486223862D-03  .701379030943D-05  .528262128448D+04
      .417600000000D+06  .465661287308D-08 -.106827767456D+01 -.838190317154D-08
      .950134470263D+00  .212421875000D+03  .267417153169D-01 -.702886420898D-08
      .942896418278D-10  .000000000000D+00  .812000000000D+03  .000000000000D+00
      .200000000000D+01  .000000000000D+00  .900000018955D-09  .900000000000D-09
      .417600000000D+06  .100000000000D+01
C26 2021 07 29 20 00 00  .871821423061D-03 -.524558174675D-11  .000000000000D+00
      .100000000000D+01  .660156250000D+02  .405481175633D-08  .150517768202D+01
      .334624201059D-05  .636627897620D-03  .739609822631D-05  .528262211990D+04
      .417600000000D+06 -.246800482273D-07 -.106770877936D+01 -.703148543835D-07
      .950188811818D+00  .208750000000D+03  .154883710134D+00 -.697279044471D-08
      .128933942045D-09  .000000000000D+00  .812000000000D+03  .000000000000D+00
      .200000000000D+01  .000000000000D+00 -.489999996134D-08 -.490000000000D-08
      .417600000000D+06  .100000000000D+01
C10 2021 07 29 20 00 00 -.137041788548D-04  .396038757344D-11  .000000000000D+00
      .100000000000D+01 -.207500000000D+02  .191079387795D-08 -.287433861286D+01
     -.568106770515D-06  .771904201247D-02  .922009348869D-06  .649316164398D+04
      .417600000000D+06 -.186730176210D-06 -.170526895038D+00  .162050127983D-06
      .888553379906D+00  .190187500000D+03 -.253215492045D+01 -.274904308011D-08
     -.337871216549D-09  .000000000000D+00  .812000000000D+03  .000000000000D+00
      .200000000000D+01  .000000000000D+00  .610000006063D-08  .260000000000D-08
      .417600000000D+06  .000000000000D+00
C05 2021 07 29 20 00 00 -.242061214522D-04  .161248792097D-10  .000000000000D+00
      .100000000000D+01  .459531250000D+03  .124112312633D-08 -.177815573644D+01
      .148648396134D-04  .673989299685D-03 -.511715188622D-05  .649341055298D+04
      .417600000000D+06  .679865479469D-07  .218466941104D+01 -.977888703346D-07
      .116220464729D+00  .150765625000D+03 -.345941198960D+00 -.402516766439D-09
      .214294640518D-09  .000000000000D+00  .812000000000D+03  .000000000000D+00
      .200000000000D+01  .000000000000D+00 -.499999985859D-09 -.960000000000D-08
      .417600000000D+06  .000000000000D+00
